STARLINK-3082
1 29162C 21082AJ  21325.18988962 -.00662523  00000-0 -11090-1 0  3250
2 29162  69.9999 295.9309 0003426 274.4736 156.4178 15.52368998    19
